KUIPER-00074            
1 64821U 25151F   25290.16668980  .00044471  00000+0  46815-2 0  9992
2 64821  51.8953 205.5345 0013193 145.8126 252.7253 14.88884978  5806
KUIPER-00075            
1 64822U 25151G   25290.04847414  .00069789  00000+0  17711-2 0  9993
2 64822  51.8765 199.2468 0006806 121.3734 238.7920 15.39009294 14262
KUIPER-00076            
1 64823U 25151H   25290.16668980 -.00003476  00000+0 -39924-3 0  9990
2 64823  51.8979 207.7627 0005533 153.2555  14.9905 14.82662722  4627
KUIPER-00077            
1 64824U 25151J   25289.51896359  .00005054  00000+0  69110-3 0  9993
2 64824  51.9007 215.5994 0006561  94.1592 266.0121 14.79952289 13997
KUIPER-00078            
1 64825U 25151K   25290.16331010  .00014045  00000+0  18660-2 0  9998
2 64825  51.9000 210.2538 0008387 169.1158 190.9987 14.79949400 14128
KUIPER-00079            
1 64826U 25151L   25290.02741176  .00004125  00000+0  56900-3 0  9990
2 64826  51.8966 215.5470 0012911 121.5550 238.6675 14.79964263 15239
KUIPER-00080            
1 64827U 25151M   25290.09020014  .00009886  00000+0  13231-2 0  9997
2 64827  51.8981 215.5684 0005843 136.1320 224.0107 14.79955049 14046
KUIPER-00082            
1 64828U 25151N   25290.16668980  .00053841  00000+0  43481-2 0  9996
2 64828  51.8926 203.6427 0005415 146.7638 250.8869 14.99297251  1531
KUIPER-00083            
1 64829U 25151P   25289.52170595 -.00017699  00000+0 -22923-2 0  9996
2 64829  51.9015 213.0899 0010872 128.0849 232.1096 14.79998092 15214
KUIPER-00084            
1 64830U 25151Q   25290.18614601  .00000530  00000+0  99031-4 0  9993
2 64830  51.8996 220.1389 0012077 101.8435 258.3883 14.79840678 13987
KUIPER-00085            
1 64831U 25151R   25290.16668980 -.00953035  00000+0 -80474-1 0  9998
2 64831  51.8967 203.7837 0009416 121.5802  91.4252 15.00318014  3659
KUIPER-00086            
1 64832U 25151S   25290.16051875  .00005250  00000+0  71659-3 0  9990
2 64832  51.9007 212.7630 0011816 124.2751 235.9331 14.79938055 14087
KUIPER-00087            
1 64833U 25151T   25290.16668980 -.00785608  00000+0 -36787-1 0  9997
2 64833  51.8816 200.1418 0005476 129.5321 176.2860 15.21830270  1309
KUIPER-00089            
1 64834U 25151U   25290.16668980 -.00807197  00000+0 -55985-1 0  9997
2 64834  51.8914 202.2193 0003536 128.2228 247.3666 15.07691463  5300
KUIPER-00090            
1 64835U 25151V   25290.16668980  .00077693  00000+0  30373-2 0  9991
2 64835  51.8855 199.8891 0005065 139.4820 249.5865 15.25151742  4532
KUIPER-00091            
1 64836U 25151W   25290.16668980 -.00386293  00000+0 -22254-1 0  9991
2 64836  51.8820 201.1816 0008070 142.8928 299.9516 15.13781128  4351
KUIPER-00092            
1 64837U 25151X   25290.16668980 -.01031880  00000+0 -11097+0 0  9993
2 64837  51.8938 205.5494 0007587 121.9552  56.2319 14.91183215  2345
KUIPER-00093            
1 64838U 25151Y   25290.16668980  .00041006  00000+0  49260-2 0  9998
2 64838  51.8979 207.7897 0014663 131.1850 214.6578 14.83507739  2012
KUIPER-00094            
1 64839U 25151Z   25290.16668980  .00055820  00000+0  36092-2 0  9997
2 64839  51.8870 202.3170 0007378 135.0837  95.0105 15.07641783  4958
KUIPER-00081            
1 65132U 25171A   25290.12178681  .00076845  00000+0  20295-2 0  9994
2 65132  51.8730  83.0654 0005210   1.8061 358.2944 15.37748302 11493
KUIPER-00088            
1 65133U 25171B   25290.16668980 -.00414662  00000+0 -21365-1 0  9998
2 65133  51.8874  84.3205 0005996 353.1419 260.3036 15.17844263  5365
KUIPER-00095            
1 65134U 25171C   25290.14938444  .00051287  00000+0  13874-2 0  9997
2 65134  51.8741  83.2388 0003639 353.0115   7.0820 15.37195193 11494
KUIPER-00096            
1 65135U 25171D   25290.16668980 -.01005831  00000+0 -30690-1 0  9996
2 65135  51.8743  83.0072 0005294  17.7411 150.7707 15.35901061  5587
KUIPER-00097            
1 65136U 25171E   25290.16668980 -.00013211  00000+0 -45652-3 0  9993
2 65136  51.8784  83.4501 0003721  13.6944 278.4060 15.28582823  4664
KUIPER-00098            
1 65137U 25171F   25290.16668980 -.00205838  00000+0 -87232-2 0  9991
2 65137  51.8795  83.6072 0006450   7.8603 232.4367 15.23515247  5348
KUIPER-00099            
1 65138U 25171G   25290.12514317  .00071570  00000+0  18792-2 0  9999
2 65138  51.8742  83.0926 0005864 358.5025   1.5943 15.37957569 11484
KUIPER-00100            
1 65139U 25171H   25289.93960609  .00072880  00000+0  19297-2 0  9992
2 65139  51.8739  84.0868 0005697   6.1432 353.9624 15.37691314 11459
KUIPER-00102            
1 65140U 25171J   25290.14965602  .00051830  00000+0  13985-2 0  9997
2 65140  51.8782  83.2384 0004373 355.1836   4.9108 15.37266104 11486
KUIPER-00103            
1 65141U 25171K   25290.16668980  .00005380  00000+0  41238-3 0  9991
2 65141  51.8921  86.6265 0005621  19.2209 182.0306 15.03256159  5670
KUIPER-00104            
1 65142U 25171L   25290.16668980 -.00567828  00000+0 -17740-1 0  9993
2 65142  51.8768  83.0877 0004777   7.4164 134.2535 15.34968094  4483
KUIPER-00105            
1 65143U 25171M   25290.16668980  .00021799  00000+0  11336-2 0  9990
2 65143  51.8798  84.4775 0009882 344.8107 133.8774 15.15952394  4739
KUIPER-00106            
1 65144U 25171N   25290.16668980  .00009900  00000+0  72494-3 0  9994
2 65144  51.8900  86.8081 0009531 328.3968  51.8796 15.04088006  5893
KUIPER-00107            
1 65145U 25171P   25289.93914454  .00052110  00000+0  13959-2 0  9999
2 65145  51.8741  84.0944 0004651   9.7457 350.3619 15.37486392 11463
KUIPER-00108            
1 65146U 25171Q   25290.16668980  .00038526  00000+0  12751-2 0  9991
2 65146  51.8792  83.3591 0006312  20.5808 342.0711 15.30933723  5582
KUIPER-00109            
1 65147U 25171R   25289.86444243  .00028337  00000+0  75817-3 0  9993
2 65147  51.8740  84.3392 0006584 350.6053   9.4810 15.37806093 11448
KUIPER-00110            
1 65148U 25171S   25290.16668980 -.01003899  00000+0 -65213-1 0  9991
2 65148  51.9011  85.5355 0009559 347.7773 319.0327 15.10615826  5689
KUIPER-00111            
1 65149U 25171T   25290.16668980 -.01072327  00000+0 -10434+0 0  9997
2 65149  51.8939  88.3195 0007440  10.1598  79.5982 14.95233727  5014
KUIPER-00112            
1 65150U 25171U   25290.15122628  .00070449  00000+0  18870-2 0  9997
2 65150  51.8756  83.2603 0004978  17.0681 343.0472 15.37353843 11483
KUIPER-00114            
1 65151U 25171V   25290.16668980 -.00016631  00000+0 -18402-2 0  9991
2 65151  51.8967  90.4299 0008281 344.1764 354.7942 14.86459951  4928
KUIPER-00115            
1 65152U 25171W   25290.16668980 -.01274251  00000+0 -80014-1 0  9994
2 65152  51.8882  85.3517 0009073  12.1522  94.5924 15.12077742  4164
KUIPER-00116            
1 65153U 25171X   25290.16668980 -.00911094  00000+0 -88575-1 0  9997
2 65153  51.8954  88.4867 0008608 338.5669 275.1112 14.94786069  5746
KUIPER-00118            
1 65154U 25171Y   25290.16668980 -.00051404  00000+0 -58205-2 0  9996
2 65154  51.8969  90.3551 0004740   1.1770 163.1067 14.86141537  5778
KUIPER-00119            
1 65155U 25171Z   25290.16668980 -.01695336  00000+0 -78680-1 0  9994
2 65155  51.8800  83.7336 0007521 340.1764 158.2235 15.22956795  5839
KUIPER-00120            
1 65762U 25217A   25290.13018137  .00044032  00000+0  12951-2 0  9997
2 65762  51.8646 338.3290 0009423 191.7531 168.3236 15.34612805  3334
KUIPER-00132            
1 65763U 25217B   25290.18300046  .00029667  00000+0  85390-3 0  9991
2 65763  51.8660 337.9394 0006126 174.6152 185.4900 15.35508513  3347
KUIPER-00133            
1 65764U 25217C   25290.12726977  .00036162  00000+0  10617-2 0  9998
2 65764  51.8670 338.3141 0007969 187.1394 172.9479 15.34773520  3339
KUIPER-00139            
1 65765U 25217D   25290.18580442  .00039193  00000+0  11305-2 0  9992
2 65765  51.8687 337.9611 0006919 180.0746 180.0240 15.35301345  3342
KUIPER-00142            
1 65766U 25217E   25290.10431174  .00048007  00000+0  13324-2 0  9999
2 65766  51.8710 338.1718 0003214 136.5768 223.5472 15.36429221  3330
KUIPER-00145            
1 65767U 25217F   25290.10673242  .00052729  00000+0  14703-2 0  9992
2 65767  51.8724 338.1869 0003809 152.2661 207.8529 15.36240247  3337
KUIPER-00147            
1 65768U 25217G   25290.18453638  .00049353  00000+0  14141-2 0  9991
2 65768  51.8673 337.9514 0007099 175.0359 185.0699 15.35402304  3346
KUIPER-00148            
1 65769U 25217H   25290.12938245  .00044171  00000+0  12983-2 0  9993
2 65769  51.8630 338.3228 0009274 188.6360 171.4467 15.34635627  3332
KUIPER-00150            
1 65770U 25217J   25290.12757272  .00034869  00000+0  10251-2 0  9993
2 65770  51.8618 338.3083 0008867 188.1480 171.9363 15.34743030  3332
KUIPER-00151            
1 65771U 25217K   25290.10980205  .00047905  00000+0  13439-2 0  9992
2 65771  51.8709 338.2071 0005143 155.9801 204.1426 15.36087518  3336
KUIPER-00152            
1 65772U 25217L   25290.15885782  .00067380  00000+0  18175-2 0  9993
2 65772  51.8736 337.7844 0002140  74.2523 285.8700 15.37165406  3343
KUIPER-00153            
1 65773U 25217M   25290.18985691  .00033347  00000+0  97340-3 0  9995
2 65773  51.8654 337.9818 0008259 181.3425 178.7540 15.34993662  3346
KUIPER-00155            
1 65774U 25217N   25290.11424622  .00039810  00000+0  11316-2 0  9990
2 65774  51.8680 338.2335 0005135 166.8360 193.2761 15.35760405  3334
KUIPER-00156            
1 65775U 25217P   25290.16312120  .00034063  00000+0  93567-3 0  9999
2 65775  51.8739 337.8147 0002527 111.5061 248.6195 15.36911204  3346
KUIPER-00158            
1 65776U 25217Q   25290.11116900  .00037235  00000+0  10523-2 0  9997
2 65776  51.8716 338.2160 0004939 161.7770 198.3394 15.35975725  3333
KUIPER-00163            
1 65777U 25217R   25290.18783123  .00029120  00000+0  84801-3 0  9997
2 65777  51.8641 337.9674 0007738 181.8413 178.2545 15.35141053  3349
